     2.100          NAVIGATION                              RINEX VERSION / TYPE
fic2rin                                 06/05/2014 00:13:35 PGM / RUN BY / DATE
                                                            END OF HEADER
 5 14  6  4 12  0  0.0 -.368189532310D-03  .272848410532D-11  .000000000000D+00
     .610000000000D+02  .324687500000D+02  .508699760815D-08 -.192491913357D+01
     .138953328133D-05  .359075958841D-02  .719726085663D-05  .515360386086D+04
     .302400000000D+06  .484287738800D-07 -.782956140580D+00 -.838190317154D-07
     .947121436872D+00  .232750000000D+03  .303503404009D+00 -.825677249915D-08
     .280725979078D-09  .100000000000D+01  .179500000000D+04  .000000000000D+00
     .240000000000D+01  .000000000000D+00 -.102445483208D-07  .610000000000D+02
     .295206000000D+06  .400000000000D+01
 6 14  6  4 12  0  0.0  .780029222369D-05  .147792889038D-11  .000000000000D+00
     .133000000000D+03 -.303125000000D+02  .424660545959D-08 -.225760222343D+01
    -.138022005558D-05  .342347775586D-03  .104736536741D-04  .516771899986D+04
     .302400000000D+06  .558793544769D-08 -.182990614604D+01 -.745058059692D-08
     .960566721951D+00  .171437500000D+03  .241706923250D+01 -.775032283206D-08
     .215366113720D-09  .100000000000D+01  .179500000000D+04  .000000000000D+00
     .340000000000D+01  .630000000000D+02  .605359673500D-08  .133000000000D+03
     .295206000000D+06  .400000000000D+01
 7 14  6  4 12  0  0.0  .353862997144D-03  .432009983342D-11  .000000000000D+00
     .118000000000D+03  .421562500000D+02  .421231831711D-08  .746761651357D+00
     .228546559811D-05  .740941509139D-02  .827200710773D-05  .515363420486D+04
     .302400000000D+06  .391155481339D-07  .133908391884D+01  .484287738800D-07
     .973268838794D+00  .222468750000D+03 -.283909882836D+01 -.801961976364D-08
    -.234295473633D-09  .100000000000D+01  .179500000000D+04  .000000000000D+00
     .240000000000D+01  .000000000000D+00 -.107102096081D-07  .118000000000D+03
     .295206000000D+06  .400000000000D+01
 8 14  6  4 12  0  0.0  .140103511512D-04  .341060513165D-12  .000000000000D+00
     .490000000000D+02  .428437500000D+02  .370551149228D-08  .266614748454D+00
     .218860805035D-05  .137407880975D-01  .820308923721D-05  .515335997200D+04
     .302400000000D+06  .108033418655D-06  .143872435178D+01  .128522515297D-06
     .996508847565D+00  .235812500000D+03 -.277419039667D+01 -.786425614926D-08
    -.175364447490D-09  .100000000000D+01  .179500000000D+04  .000000000000D+00
     .240000000000D+01  .000000000000D+00 -.419095158577D-08  .490000000000D+02
     .295206000000D+06  .400000000000D+01
10 14  6  4 12  0  0.0 -.128343701363D-03 -.147792889038D-11  .000000000000D+00
     .940000000000D+02  .348437500000D+02  .516378652101D-08 -.172028040191D+01
     .171363353729D-05  .135835328838D-01  .647827982903D-05  .515373097420D+04
     .302400000000D+06  .249594449997D-06 -.765732901746D+00 -.113621354103D-06
     .941933051612D+00  .237781250000D+03  .865359460369D+00 -.818926968738D-08
     .335728270144D-09  .100000000000D+01  .179500000000D+04  .000000000000D+00
     .240000000000D+01  .000000000000D+00 -.279396772385D-08  .940000000000D+02
     .295206000000D+06  .400000000000D+01
11 14  6  4 12  0  0.0 -.494523439556D-03 -.318323145621D-11  .000000000000D+00
     .720000000000D+02 -.411875000000D+02  .612132640639D-08  .907807327510D+00
    -.223517417908D-05  .149886243744D-01  .905618071556D-05  .515370477486D+04
     .302400000000D+06 -.210478901863D-06 -.214593711590D+01 -.167638063431D-07
     .890509421338D+00  .170281250000D+03  .128824997475D+01 -.902537594314D-08
    -.857178562071D-11  .100000000000D+01  .179500000000D+04  .000000000000D+00
     .240000000000D+01  .000000000000D+00 -.121071934700D-07  .720000000000D+02
     .295206000000D+06  .400000000000D+01
12 14  6  4 12  0  0.0  .209336169064D-03  .250111042988D-11  .000000000000D+00
     .230000000000D+02  .146250000000D+02  .406838375023D-08  .286118490784D+00
     .752508640289D-06  .513920746744D-02  .518560409546D-05  .515361196709D+04
     .302400000000D+06  .316649675369D-07  .240256708127D+01  .614672899246D-07
     .987637561652D+00  .290906250000D+03  .447684562008D+00 -.802354849872D-08
     .471448209139D-10  .100000000000D+01  .179500000000D+04  .000000000000D+00
     .240000000000D+01  .000000000000D+00 -.121071934700D-07  .230000000000D+02
     .295206000000D+06  .400000000000D+01
15 14  6  4 12  0  0.0 -.183356925845D-03 -.216004991671D-11  .000000000000D+00
     .700000000000D+01  .556250000000D+01  .535236580466D-08  .281172686746D+01
     .307336449623D-06  .627352145966D-02  .651925802231D-05  .515369766808D+04
     .302400000000D+06 -.968575477600D-07  .230608642118D+00 -.409781932831D-07
     .936985508019D+00  .242281250000D+03  .274451306559D+00 -.832498962638D-08
    -.228223792151D-09  .100000000000D+01  .179500000000D+04  .000000000000D+00
     .240000000000D+01  .000000000000D+00 -.102445483208D-07  .700000000000D+01
     .295206000000D+06  .400000000000D+01
16 14  6  4 12  0  0.0 -.214944127947D-03  .204636307899D-11  .000000000000D+00
     .490000000000D+02  .765625000000D+01  .392337771014D-08 -.184365522508D+01
     .420957803726D-06  .773624773137D-02  .487454235554D-05  .515360011673D+04
     .302400000000D+06 -.130385160446D-07  .242112258936D+01 -.502914190292D-07
     .988250514086D+00  .301593750000D+03  .214432766317D+00 -.787818530090D-08
     .134648465792D-09  .100000000000D+01  .179500000000D+04  .000000000000D+00
     .240000000000D+01  .000000000000D+00 -.102445483208D-07  .490000000000D+02
     .295206000000D+06  .400000000000D+01
17 14  6  4 12  0  0.0 -.986396335065D-04 -.295585778076D-11  .000000000000D+00
     .800000000000D+01 -.709687500000D+02  .419588906134D-08 -.277702157764D+01
    -.355578958988D-05  .929699686822D-02  .656023621559D-05  .515360109901D+04
     .302400000000D+06  .428408384323D-07 -.283059870818D+01 -.409781932831D-07
     .969029322681D+00  .255968750000D+03 -.209781480604D+01 -.783604068826D-08
    -.389301930274D-10  .100000000000D+01  .179500000000D+04  .000000000000D+00
     .240000000000D+01  .000000000000D+00 -.102445483208D-07  .800000000000D+01
     .295206000000D+06  .400000000000D+01
18 14  6  4 12  0  0.0  .323417596519D-03  .227373675443D-11  .000000000000D+00
     .660000000000D+02  .358437500000D+02  .556416034104D-08 -.119221714461D+01
     .225007534027D-05  .153425798053D-01  .651553273201D-05  .515369604874D+04
     .302400000000D+06  .165775418282D-06 -.788396178471D+00  .324100255966D-06
     .925681134792D+00  .233875000000D+03 -.203381775622D+01 -.854321300197D-08
     .232152527227D-09  .100000000000D+01  .179500000000D+04  .000000000000D+00
     .240000000000D+01  .000000000000D+00 -.111758708954D-07  .660000000000D+02
     .295206000000D+06  .400000000000D+01
19 14  6  4 12  0  0.0 -.460781157017D-03 -.216004991671D-11  .000000000000D+00
     .710000000000D+02 -.694375000000D+02  .426017745349D-08  .271744286518D+01
    -.362098217010D-05  .104054136900D-01  .705383718014D-05  .515362312317D+04
     .302400000000D+06 -.109896063805D-06 -.277983278978D+01 -.115483999252D-06
     .966130541729D+00  .247156250000D+03  .438278279638D+00 -.790211486909D-08
    -.396445084958D-10  .100000000000D+01  .179500000000D+04  .000000000000D+00
     .240000000000D+01  .000000000000D+00 -.149011611938D-07  .710000000000D+02
     .295206000000D+06  .400000000000D+01
20 14  6  4 12  0  0.0  .196450855583D-03  .397903932026D-11  .000000000000D+00
     .390000000000D+02  .348125000000D+02  .562559147132D-08 -.675058999466D+00
     .186264514923D-05  .575638166629D-02  .702403485775D-05  .515378246498D+04
     .302400000000D+06 -.223517417908D-07 -.841467800591D+00  .856816768646D-07
     .926651052404D+00  .232437500000D+03  .132998606934D+01 -.863714548606D-08
     .248938940735D-09  .100000000000D+01  .179500000000D+04  .000000000000D+00
     .240000000000D+01  .000000000000D+00 -.838190317154D-08  .390000000000D+02
     .295206000000D+06  .400000000000D+01
21 14  6  4 12  0  0.0 -.365039799362D-03 -.216004991671D-11  .000000000000D+00
     .590000000000D+02 -.198750000000D+02  .516664378288D-08 -.233058738781D+00
    -.895932316780D-06  .215089757694D-01  .947341322899D-05  .515374818802D+04
     .302400000000D+06 -.115483999252D-06 -.183383613210D+01  .355765223503D-06
     .932115164075D+00  .188437500000D+03 -.201992987698D+01 -.862393064990D-08
     .267511142913D-09  .100000000000D+01  .179500000000D+04  .000000000000D+00
     .240000000000D+01  .000000000000D+00 -.111758708954D-07  .590000000000D+02
     .295206000000D+06  .400000000000D+01
22 14  6  4 12  0  0.0  .239434652030D-03  .272848410532D-11  .000000000000D+00
     .650000000000D+02  .320937500000D+02  .555773150183D-08 -.175225413694D+01
     .172480940819D-05  .727395503782D-02  .634416937828D-05  .515372428703D+04
     .302400000000D+06  .931322574615D-07 -.786526617442D+00  .521540641785D-07
     .923459444993D+00  .232687500000D+03 -.205478414598D+01 -.846642408912D-08
     .272868508926D-09  .100000000000D+01  .179500000000D+04  .000000000000D+00
     .340000000000D+01  .000000000000D+00 -.172294676304D-07  .650000000000D+02
     .295206000000D+06  .400000000000D+01
23 14  6  4 12  0  0.0 -.259918160737D-04 -.306954461848D-11  .000000000000D+00
     .830000000000D+02  .490625000000D+01  .494342019901D-08  .237672616215D+01
     .298023223877D-06  .943576788995D-02  .728480517864D-05  .515378005981D+04
     .302400000000D+06 -.253319740295D-06  .277378425696D+00 -.186264514923D-07
     .952058709318D+00  .238156250000D+03 -.278200967040D+01 -.815176812529D-08
    -.236438420038D-09  .100000000000D+01  .179500000000D+04  .000000000000D+00
     .240000000000D+01  .000000000000D+00 -.200234353542D-07  .830000000000D+02
     .295206000000D+06  .400000000000D+01
